[{"OBJECT_NAME":"STARLINK-32515","OBJECT_ID":"2024-195U","EPOCH":"2026-03-09T12:49:52.666176","MEAN_MOTION":15.30171928,"ECCENTRICITY":0.00013219,"INCLINATION":53.1606,"RA_OF_ASC_NODE":156.3738,"ARG_OF_PERICENTER":84.4033,"MEAN_ANOMALY":275.7118,"EPHEMERIS_TYPE":0,"CLASSIFICATION_TYPE":"U","NORAD_CAT_ID":61705,"ELEMENT_SET_NO":999,"REV_AT_EPOCH":7715,"BSTAR":-1.5743747e-5,"MEAN_MOTION_DOT":-8.25e-6,"MEAN_MOTION_DDOT":0},{"OBJECT_NAME":"GEOSCAN 5 (RS92S5)","OBJECT_ID":"2025-155R","EPOCH":"2026-03-09T22:01:07.273920","MEAN_MOTION":15.30265233,"ECCENTRICITY":0.00070849,"INCLINATION":97.4462,"RA_OF_ASC_NODE":37.7456,"ARG_OF_PERICENTER":154.5846,"MEAN_ANOMALY":205.5745,"EPHEMERIS_TYPE":0,"CLASSIFICATION_TYPE":"U","NORAD_CAT_ID":64891,"ELEMENT_SET_NO":999,"REV_AT_EPOCH":6562,"BSTAR":0.00068639307,"MEAN_MOTION_DOT":0.00020065,"MEAN_MOTION_DDOT":0}]
